{"type": "FeatureCollection", "features": [ {"type": "Feature", "properties": {"norad_id": 39155, "name": "COSMOS 2485 (747)", "group": "glo-ops", "lat": -14.675129123267824, "lon": 73.30669273933452, "alt_km": 19159.103731748666, "timestamp": "2025-12-02T06:27:53.274870+00:00", "meta": {"OBJECT_NAME": "COSMOS 2485 (747)", "OBJECT_ID": "2013-019A", "EPOCH": "2025-11-24T07:30:54.982368", "MEAN_MOTION": 2.13103115, "ECCENTRICITY": 0.0024274, "INCLINATION": 65.3036, "RA_OF_ASC_NODE": 80.4871, "ARG_OF_PERICENTER": 228.0776, "MEAN_ANOMALY": 131.7167, "EPHEMERIS_TYPE": 0, "CLASSIFICATION_TYPE": "U", "NORAD_CAT_ID": 39155, "ELEMENT_SET_NO": 999, "REV_AT_EPOCH": 9791, "BSTAR": 0, "MEAN_MOTION_DOT": 1.2e-07, "MEAN_MOTION_DDOT": 0}, "tle": {"line1": "1 39155U 13019A   25328.31313637  .00000012  00000+0  00000+0 0  9995", "line2": "2 39155  65.3036  80.4871 0024274 228.0776 131.7167  2.13103115 97916"}}, "geometry": {"type": "Point", "coordinates": [73.30669273933452, -14.675129123267824]}}, {"type": "Feature", "properties": {"norad_id": 39620, "name": "COSMOS 2492 (754)", "group": "glo-ops", "lat": 14.09321333988778, "lon": -32.77832957846444, "alt_km": 19113.06976514847, "timestamp": "2025-12-02T06:27:53.274881+00:00", "meta": {"OBJECT_NAME": "COSMOS 2492 (754)", "OBJECT_ID": "2014-012A", "EPOCH": "2025-12-01T18:43:02.781120", "MEAN_MOTION": 2.13103085, "ECCENTRICITY": 0.0014159, "INCLINATION": 65.4139, "RA_OF_ASC_NODE": 320.6426, "ARG_OF_PERICENTER": 310.873, "MEAN_ANOMALY": 49.0143, "EPHEMERIS_TYPE": 0, "CLASSIFICATION_TYPE": "U", "NORAD_CAT_ID": 39620, "ELEMENT_SET_NO": 999, "REV_AT_EPOCH": 9103, "BSTAR": 0, "MEAN_MOTION_DOT": -2.9e-07, "MEAN_MOTION_DDOT": 0}, "tle": {"line1": "1 39620U 14012A   25335.77989330 -.00000029  00000+0  00000+0 0  9992", "line2": "2 39620  65.4139 320.6426 0014159 310.8730  49.0143  2.13103085 91032"}}, "geometry": {"type": "Point", "coordinates": [-32.77832957846444, 14.09321333988778]}}, {"type": "Feature", "properties": {"norad_id": 40001, "name": "COSMOS 2500 (755)", "group": "glo-ops", "lat": -54.2873967758932, "lon": -179.90915732812263, "alt_km": 19116.24540209343, "timestamp": "2025-12-02T06:27:53.274892+00:00", "meta": {"OBJECT_NAME": "COSMOS 2500 (755)", "OBJECT_ID": "2014-032A", "EPOCH": "2025-12-01T00:19:46.958016", "MEAN_MOTION": 2.13105898, "ECCENTRICITY": 0.00083447, "INCLINATION": 65.35, "RA_OF_ASC_NODE": 320.4317, "ARG_OF_PERICENTER": 219.0257, "MEAN_ANOMALY": 140.9269, "EPHEMERIS_TYPE": 0, "CLASSIFICATION_TYPE": "U", "NORAD_CAT_ID": 40001, "ELEMENT_SET_NO": 999, "REV_AT_EPOCH": 8923, "BSTAR": 0, "MEAN_MOTION_DOT": -2.5e-07, "MEAN_MOTION_DDOT": 0}, "tle": {"line1": "1 40001U 14032A   25335.01373794 -.00000025  00000+0  00000+0 0  9993", "line2": "2 40001  65.3500 320.4317 0008344 219.0257 140.9269  2.13105898 89231"}}, "geometry": {"type": "Point", "coordinates": [-179.90915732812263, -54.2873967758932]}}, {"type": "Feature", "properties": {"norad_id": 40315, "name": "COSMOS 2501 (702K)", "group": "glo-ops", "lat": 38.440289522021715, "lon": -139.61503799399074, "alt_km": 19174.1540579906, "timestamp": "2025-12-02T06:27:53.274903+00:00", "meta": {"OBJECT_NAME": "COSMOS 2501 (702K)", "OBJECT_ID": "2014-075A", "EPOCH": "2025-11-30T19:17:52.497312", "MEAN_MOTION": 2.13101305, "ECCENTRICITY": 0.00201676, "INCLINATION": 63.6137, "RA_OF_ASC_NODE": 197.2386, "ARG_OF_PERICENTER": 204.7979, "MEAN_ANOMALY": 155.1955, "EPHEMERIS_TYPE": 0, "CLASSIFICATION_TYPE": "U", "NORAD_CAT_ID": 40315, "ELEMENT_SET_NO": 999, "REV_AT_EPOCH": 8562, "BSTAR": 0, "MEAN_MOTION_DOT": 1e-06, "MEAN_MOTION_DDOT": 0}, "tle": {"line1": "1 40315U 14075A   25334.80407983  .00000100  00000+0  00000+0 0  9995", "line2": "2 40315  63.6137 197.2386 0020167 204.7979 155.1955  2.13101305 85629"}}, "geometry": {"type": "Point", "coordinates": [-139.61503799399074, 38.440289522021715]}}, {"type": "Feature", "properties": {"norad_id": 41330, "name": "COSMOS 2514 (751)", "group": "glo-ops", "lat": 49.011628257177975, "lon": -7.990038686963392, "alt_km": 19154.905591045477, "timestamp": "2025-12-02T06:27:53.274914+00:00", "meta": {"OBJECT_NAME": "COSMOS 2514 (751)", "OBJECT_ID": "2016-008A", "EPOCH": "2025-12-01T06:10:30.326016", "MEAN_MOTION": 2.13102518, "ECCENTRICITY": 0.0012529, "INCLINATION": 65.1403, "RA_OF_ASC_NODE": 319.7975, "ARG_OF_PERICENTER": 219.8281, "MEAN_ANOMALY": 140.091, "EPHEMERIS_TYPE": 0, "CLASSIFICATION_TYPE": "U", "NORAD_CAT_ID": 41330, "ELEMENT_SET_NO": 999, "REV_AT_EPOCH": 7640, "BSTAR": 0, "MEAN_MOTION_DOT": -2.7e-07, "MEAN_MOTION_DDOT": 0}, "tle": {"line1": "1 41330U 16008A   25335.25729544 -.00000027  00000+0  00000+0 0  9990", "line2": "2 41330  65.1403 319.7975 0012529 219.8281 140.0910  2.13102518 76408"}}, "geometry": {"type": "Point", "coordinates": [-7.990038686963392, 49.011628257177975]}}, {"type": "Feature", "properties": {"norad_id": 42939, "name": "COSMOS 2522 (752)", "group": "glo-ops", "lat": -0.29362673562984737, "lon": 18.730404509300712, "alt_km": 19118.83262981365, "timestamp": "2025-12-02T06:27:53.274924+00:00", "meta": {"OBJECT_NAME": "COSMOS 2522 (752)", "OBJECT_ID": "2017-055A", "EPOCH": "2025-12-01T13:33:34.905312", "MEAN_MOTION": 2.13101875, "ECCENTRICITY": 0.0006558, "INCLINATION": 64.0757, "RA_OF_ASC_NODE": 198.6097, "ARG_OF_PERICENTER": 226.2705, "MEAN_ANOMALY": 133.7684, "EPHEMERIS_TYPE": 0, "CLASSIFICATION_TYPE": "U", "NORAD_CAT_ID": 42939, "ELEMENT_SET_NO": 999, "REV_AT_EPOCH": 6376, "BSTAR": 0, "MEAN_MOTION_DOT": 1.03e-06, "MEAN_MOTION_DDOT": 0}, "tle": {"line1": "1 42939U 17055A   25335.56498733  .00000103  00000+0  00000+0 0  9990", "line2": "2 42939  64.0757 198.6097 0006558 226.2705 133.7684  2.13101875 63768"}}, "geometry": {"type": "Point", "coordinates": [18.730404509300712, -0.29362673562984737]}}, {"type": "Feature", "properties": {"norad_id": 43508, "name": "COSMOS 2527 (756)", "group": "glo-ops", "lat": -27.502387225958213, "lon": -85.78513326657304, "alt_km": 19112.361001745634, "timestamp": "2025-12-02T06:27:53.274935+00:00", "meta": {"OBJECT_NAME": "COSMOS 2527 (756)", "OBJECT_ID": "2018-053A", "EPOCH": "2025-11-28T17:02:34.696320", "MEAN_MOTION": 2.1310209, "ECCENTRICITY": 0.00085767, "INCLINATION": 65.4651, "RA_OF_ASC_NODE": 80.6007, "ARG_OF_PERICENTER": 223.0414, "MEAN_ANOMALY": 136.8979, "EPHEMERIS_TYPE": 0, "CLASSIFICATION_TYPE": "U", "NORAD_CAT_ID": 43508, "ELEMENT_SET_NO": 999, "REV_AT_EPOCH": 5800, "BSTAR": 0, "MEAN_MOTION_DOT": 1.2e-07, "MEAN_MOTION_DDOT": 0}, "tle": {"line1": "1 43508U 18053A   25332.71012380  .00000012  00000+0  00000+0 0  9995", "line2": "2 43508  65.4651  80.6007 0008576 223.0414 136.8979  2.13102090 58006"}}, "geometry": {"type": "Point", "coordinates": [-85.78513326657304, -27.502387225958213]}}, {"type": "Feature", "properties": {"norad_id": 43687, "name": "COSMOS 2529 (757)", "group": "glo-ops", "lat": 39.0657141307709, "lon": -3.762281069786906, "alt_km": 19134.455918764943, "timestamp": "2025-12-02T06:27:53.274946+00:00", "meta": {"OBJECT_NAME": "COSMOS 2529 (757)", "OBJECT_ID": "2018-086A", "EPOCH": "2025-12-01T03:41:39.870816", "MEAN_MOTION": 2.13101897, "ECCENTRICITY": 0.0007348, "INCLINATION": 64.2916, "RA_OF_ASC_NODE": 199.28, "ARG_OF_PERICENTER": 254.5997, "MEAN_ANOMALY": 105.4111, "EPHEMERIS_TYPE": 0, "CLASSIFICATION_TYPE": "U", "NORAD_CAT_ID": 43687, "ELEMENT_SET_NO": 999, "REV_AT_EPOCH": 5506, "BSTAR": 0, "MEAN_MOTION_DOT": 9.9e-07, "MEAN_MOTION_DDOT": 0}, "tle": {"line1": "1 43687U 18086A   25335.15393369  .00000099  00000+0  00000+0 0  9994", "line2": "2 43687  64.2916 199.2800 0007348 254.5997 105.4111  2.13101897 55061"}}, "geometry": {"type": "Point", "coordinates": [-3.762281069786906, 39.0657141307709]}}, {"type": "Feature", "properties": {"norad_id": 44299, "name": "COSMOS 2534 (758)", "group": "glo-ops", "lat": -64.36232155801788, "lon": 109.38765510689784, "alt_km": 19113.876633005537, "timestamp": "2025-12-02T06:27:53.274957+00:00", "meta": {"OBJECT_NAME": "COSMOS 2534 (758)", "OBJECT_ID": "2019-030A", "EPOCH": "2025-12-01T03:07:57.438624", "MEAN_MOTION": 2.1310195, "ECCENTRICITY": 0.00091167, "INCLINATION": 64.3652, "RA_OF_ASC_NODE": 199.2842, "ARG_OF_PERICENTER": 283.4428, "MEAN_ANOMALY": 193.0266, "EPHEMERIS_TYPE": 0, "CLASSIFICATION_TYPE": "U", "NORAD_CAT_ID": 44299, "ELEMENT_SET_NO": 999, "REV_AT_EPOCH": 5070, "BSTAR": 0, "MEAN_MOTION_DOT": 9.9e-07, "MEAN_MOTION_DDOT": 0}, "tle": {"line1": "1 44299U 19030A   25335.13052591  .00000099  00000+0  00000+0 0  9991", "line2": "2 44299  64.3652 199.2842 0009116 283.4428 193.0266  2.13101950 50700"}}, "geometry": {"type": "Point", "coordinates": [109.38765510689784, -64.36232155801788]}}, {"type": "Feature", "properties": {"norad_id": 44850, "name": "COSMOS 2544 (759)", "group": "glo-ops", "lat": -60.448390216268066, "lon": -46.09475102087644, "alt_km": 19101.666923021265, "timestamp": "2025-12-02T06:27:53.274968+00:00", "meta": {"OBJECT_NAME": "COSMOS 2544 (759)", "OBJECT_ID": "2019-088A", "EPOCH": "2025-12-01T11:17:07.204992", "MEAN_MOTION": 2.13101815, "ECCENTRICITY": 0.00136421, "INCLINATION": 65.4539, "RA_OF_ASC_NODE": 80.3354, "ARG_OF_PERICENTER": 248.7415, "MEAN_ANOMALY": 111.1111, "EPHEMERIS_TYPE": 0, "CLASSIFICATION_TYPE": "U", "NORAD_CAT_ID": 44850, "ELEMENT_SET_NO": 999, "REV_AT_EPOCH": 4650, "BSTAR": 0, "MEAN_MOTION_DOT": -1.2e-07, "MEAN_MOTION_DDOT": 0}, "tle": {"line1": "1 44850U 19088A   25335.47022228 -.00000012  00000+0  00000+0 0  9994", "line2": "2 44850  65.4539  80.3354 0013642 248.7415 111.1111  2.13101815 46509"}}, "geometry": {"type": "Point", "coordinates": [-46.09475102087644, -60.448390216268066]}}]}